EUTELSAT QUANTUM        
1 49056U 21069B   25319.46154191  .00000133  00000+0  00000+0 0  9998
2 49056   0.0358  79.8461 0003068 172.5404  16.2802  1.00271923 15782
EUTELSAT KONNECT VHTS   
1 53765U 22110A   25318.02427631  .00000018  00000+0  00000+0 0  9993
2 53765   0.0534  99.8556 0002636 115.6054 209.3986  1.00270917  4661
EUTELSAT HOTBIRD 13F    
1 54048U 22134A   25318.74121478  .00000091  00000+0  00000+0 0  9994
2 54048   0.0532 289.3968 0002249  69.3851 335.1412  1.00270755 11229
EUTELSAT HOTBIRD 13G    
1 54225U 22146A   25319.35322574  .00000094  00000+0  00000+0 0  9995
2 54225   0.0463 239.7389 0001933 302.2530  12.8830  1.00273628  5326
EUTELSAT 10B            
1 54259U 22157A   25319.19350426  .00000074  00000+0  00000+0 0  9991
2 54259   0.0566  96.7384 0000899  52.5453 344.8930  1.00270814 10882
EUTELSAT 36D            
1 59346U 24059A   25318.60306730  .00000000  00000+0  00000+0 0  9999
2 59346   0.0183 281.4429 0000506  52.6794 332.7780  1.00270238  5991
